CZ-4B R/B               
1 28059U 03049C   18317.41775103  .00000034  00000-0  19779-4 0  9992
2 28059  98.5054 216.8844 0051141 116.8598   8.2460 14.52542607798325
CZ-2C R/B               
1 28222U 04012C   18316.81190924  .00000432  00000-0  30124-4 0  9999
2 28222  97.5951 271.1572 0046522 223.9205 152.8250 15.09882860798094
SL-16 R/B               
1 28353U 04021B   18317.51267886  .00000099  00000-0  76974-4 0  9996
2 28353  71.0019  79.8129 0003864 163.3505 196.7745 14.14218230744876
CZ-2C R/B               
1 28480U 04046B   18317.25780959  .00000013  00000-0  20010-4 0  9992
2 28480  98.1624  24.6325 0142727 146.5945 246.8278 14.25685928727488
ARIANE 5 R/B            
1 28499U 04049H   18316.84980247  .00000042  00000-0  12634-4 0  9996
2 28499  98.0569  47.0322 0092176 357.1786  60.9299 14.79931681749926
CZ-2D R/B               
1 28738U 05024B   18316.94493305  .00000278  00000-0  20056-4 0  9999
2 28738  97.4393 347.0060 0013051  40.9928 319.2281 15.11657905733398
SUZAKU (ASTRO-EII)      
1 28773U 05025A   18317.03567065  .00000885  00000-0  39587-4 0  9998
2 28773  31.3819 201.4627 0004380 110.6196 249.4921 15.16786361735410
ALOS (DAICHI)           
1 28931U 06002A   18317.51289641  .00000142  00000-0  36655-4 0  9993
2 28931  97.8175 323.2185 0001839  95.5948 264.5480 14.62548454682634
H-2A R/B                
1 28932U 06002B   18316.86096684  .00000315  00000-0  35187-4 0  9995
2 28932  98.2501 266.7272 0090532  68.6711 315.5667 14.91828672694382
AKARI (ASTRO-F)         
1 28939U 06005A   18316.89978544  .00002197  00000-0  64984-4 0  9999
2 28939  98.1908 217.8325 0099307 198.7808 160.9758 15.31511209691656
RESURS-DK 1             
1 29228U 06021A   18317.33856555  .00000100  00000-0  14937-4 0  9991
2 29228  69.9361 229.7217 0007916 272.1365  87.8889 15.02376494685310
GENESIS 1               
1 29252U 06029A   18317.55768007  .00000461  00000-0  32724-4 0  9998
2 29252  64.5062  44.5299 0048420 276.0380  83.5226 15.17487461679868
CZ-4B R/B               
1 29507U 06046C   18317.51120701  .00000330  00000-0  30705-4 0  9991
2 29507  97.7714 330.3521 0049062 321.1596  38.6105 15.00328877658154
CZ-2C R/B               
1 31114U 07010B   18317.55989265 -.00000014  00000-0  12163-4 0  9990
2 31114  98.3385 196.9145 0060031 160.2249 200.1275 14.19280533600488
COSMO-SKYMED 1          
1 31598U 07023A   18317.53679776  .00000101  00000-0  19297-4 0  9992
2 31598  97.8861 138.9998 0001528  89.5569 270.5863 14.82155370618633
GENESIS 2               
1 31789U 07028A   18317.13118582  .00000425  00000-0  31797-4 0  9996
2 31789  64.5036  85.8106 0032604 315.5143  44.3361 15.16716139626835
COSMOS 2428             
1 31792U 07029A   18317.49883727 -.00000146  00000-0 -53137-4 0  9994
2 31792  70.9681  53.7069 0010870 227.2480 132.7727 14.12553916586685
SL-16 R/B               
1 31793U 07029B   18317.52671214 -.00000014  00000-0  17892-4 0  9996
2 31793  70.9784  28.7634 0002088 276.2328 176.3283 14.14411399587443
KORONAS-FOTON           
1 33504U 09003A   18317.46098370  .00000162  00000-0  68382-5 0  9995
2 33504  82.4425  81.7460 0020494 129.5174 230.7874 15.15280927539341
H-2A R/B                
1 38341U 12025E   18317.32901679  .00000134  00000-0  23377-4 0  9990
2 38341  98.4306  67.5670 0054625 304.6373  54.9696 14.83814884351119
CUSAT 2 & FALCON 9 R/B  
1 39271U 13055G   18317.53723333  .00005392  00000-0  13212-3 0  9996
2 39271  80.9670 170.4405 0609791 113.4779 253.1702 14.43059427266664
ALOS-2                  
1 39766U 14029A   18317.53044575 -.00000073  00000-0 -28792-5 0  9995
2 39766  97.9233  52.4800 0001477  91.9645 268.1736 14.79470132241657
SL-27 R/B               
1 40354U 14084B   18317.16464889  .00000944  00000-0  24888-4 0  9990
2 40354  74.7368 151.9433 0039807 274.6743  84.9923 15.39351249218917
ASTRO-H (HITOMI)        
1 41337U 16012A   18316.78919086  .00000266  00000-0  14743-4 0  9992
2 41337  31.0050 103.6439 0012301  73.4031 286.7954 14.98520356150022
TIANGONG-2              
1 41765U 16057A   18317.54058248  .00004327  00000-0  56640-4 0  9999
2 41765  42.7823 172.0555 0007790 224.7721 218.8971 15.59979168123343
SHENZHOU-11 MODULE      
1 41868U 16061G   18316.81250788  .00013001  00000-0  87521-4 0  9991
2 41868  42.7908 129.4384 0004564 309.3658 183.4156 15.75038335113691
